start=new Date('2022-04-01T00:00:00.000Z').valueOf();
sats=[{"INCLINATION":"53.0523","COUNTRY_CODE":"US","SEMIMAJOR_AXIS":"6925.296","BSTAR":"0.00058570000000","PERIAPSIS":"546.230","EPHEMERIS_TYPE":"0","ECCENTRICITY":"0.00013450","FILE":"3381849","RA_OF_ASC_NODE":"308.2936","ELEMENT_SET_NO":"999","OBJECT_ID":"2020-074U","NORAD_CAT_ID":"46757","ARG_OF_PERICENTER":"69.6244","SITE":"AFETR","MEAN_ANOMALY":"290.4889","REV_AT_EPOCH":"7965","RCS_SIZE":"LARGE","EPOCH":"2022-03-31T07:15:19.298880","MEAN_MOTION_DDOT":"0.0000000000000","MEAN_MOTION_DOT":"0.00008457","TIME_SYSTEM":"UTC","REF_FRAME":"TEME","TLE_LINE2":"2 46757  53.0523 308.2936 0001345  69.6244 290.4889 15.06417131 79650","MEAN_MOTION":"15.06417131","CLASSIFICATION_TYPE":"U","OBJECT_TYPE":"PAYLOAD","APOAPSIS":"548.093","GP_ID":"200146046","OBJECT_NAME":"STARLINK-1926","LAUNCH_DATE":"2020-10-24","MEAN_ELEMENT_THEORY":"SGP4","PERIOD":"95.591","CENTER_NAME":"EARTH","TLE_LINE1":"1 46757U 20074U   22090.30230670  .00008457  00000-0  58570-3 0  9998","DECAY_DATE":null},{"MEAN_ANOMALY":"311.8259","SITE":"AFETR","REV_AT_EPOCH":"7966","MEAN_MOTION_DDOT":"0.0000000000000","RCS_SIZE":"LARGE","EPOCH":"2022-03-31T07:53:51.515808","SEMIMAJOR_AXIS":"6925.345","COUNTRY_CODE":"US","INCLINATION":"53.0530","EPHEMERIS_TYPE":"0","PERIAPSIS":"545.787","BSTAR":"0.00027364000000","ECCENTRICITY":"0.00020540","RA_OF_ASC_NODE":"308.1605","FILE":"3381849","OBJECT_ID":"2020-074V","ELEMENT_SET_NO":"999","NORAD_CAT_ID":"46758","ARG_OF_PERICENTER":"48.2906","MEAN_ELEMENT_THEORY":"SGP4","LAUNCH_DATE":"2020-10-24","PERIOD":"95.592","CENTER_NAME":"EARTH","TLE_LINE1":"1 46758U 20074V   22090.32906847  .00003797  00000-0  27364-3 0  9996","DECAY_DATE":null,"TLE_LINE2":"2 46758  53.0530 308.1605 0002054  48.2906 311.8259 15.06401213 79661","MEAN_MOTION_DOT":"0.00003797","TIME_SYSTEM":"UTC","REF_FRAME":"TEME","MEAN_MOTION":"15.06401213","OBJECT_TYPE":"PAYLOAD","CLASSIFICATION_TYPE":"U","APOAPSIS":"548.632","GP_ID":"200146282","OBJECT_NAME":"STARLINK-1928"},{"NORAD_CAT_ID":"46759","ARG_OF_PERICENTER":"73.8580","FILE":"3382029","RA_OF_ASC_NODE":"315.7948","OBJECT_ID":"2020-074W","ELEMENT_SET_NO":"999","PERIAPSIS":"546.037","EPHEMERIS_TYPE":"0","BSTAR":"0.00047764000000","ECCENTRICITY":"0.00016830","COUNTRY_CODE":"US","SEMIMAJOR_AXIS":"6925.338","INCLINATION":"53.0558","MEAN_MOTION_DDOT":"0.0000000000000","RCS_SIZE":"LARGE","EPOCH":"2022-03-31T20:31:31.900512","REV_AT_EPOCH":"7933","MEAN_ANOMALY":"286.2594","SITE":"AFETR","GP_ID":"200153790","OBJECT_NAME":"STARLINK-1833","OBJECT_TYPE":"PAYLOAD","CLASSIFICATION_TYPE":"U","APOAPSIS":"548.368","MEAN_MOTION":"15.06403537","TLE_LINE2":"2 46759  53.0558 315.7948 0001683  73.8580 286.2594 15.06403537 79337","TIME_SYSTEM":"UTC","MEAN_MOTION_DOT":"0.00006841","REF_FRAME":"TEME","TLE_LINE1":"1 46759U 20074W   22090.85523033  .00006841  00000-0  47764-3 0  9996","DECAY_DATE":null,"CENTER_NAME":"EARTH","MEAN_ELEMENT_THEORY":"SGP4","LAUNCH_DATE":"2020-10-24","PERIOD":"95.592"},{"NORAD_CAT_ID":"46760","ARG_OF_PERICENTER":"67.1184","RA_OF_ASC_NODE":"315.7455","FILE":"3382239","OBJECT_ID":"2020-074X","ELEMENT_SET_NO":"999","EPHEMERIS_TYPE":"0","PERIAPSIS":"546.097","BSTAR":"0.00026479000000","ECCENTRICITY":"0.00016080","SEMIMAJOR_AXIS":"6925.345","COUNTRY_CODE":"US","INCLINATION":"53.0559","RCS_SIZE":"LARGE","MEAN_MOTION_DDOT":"0.0000000000000","EPOCH":"2022-03-31T20:47:27.161376","REV_AT_EPOCH":"7962","MEAN_ANOMALY":"292.9975","SITE":"AFETR","GP_ID":"200158448","OBJECT_NAME":"STARLINK-1896","OBJECT_TYPE":"PAYLOAD","CLASSIFICATION_TYPE":"U","APOAPSIS":"548.324","MEAN_MOTION":"15.06401109","TLE_LINE2":"2 46760  53.0559 315.7455 0001608  67.1184 292.9975 15.06401109 79628","MEAN_MOTION_DOT":"0.00003665","TIME_SYSTEM":"UTC","REF_FRAME":"TEME","TLE_LINE1":"1 46760U 20074X   22090.86628659  .00003665  00000-0  26479-3 0  9990","DECAY_DATE":null,"CENTER_NAME":"EARTH","MEAN_ELEMENT_THEORY":"SGP4","LAUNCH_DATE":"2020-10-24","PERIOD":"95.592"},{"MEAN_MOTION":"15.42216758","TLE_LINE2":"2 46763  53.0544 297.2022 0002210  34.8865 325.2284 15.42216758 79870","MEAN_MOTION_DOT":"0.00028435","REF_FRAME":"TEME","TIME_SYSTEM":"UTC","OBJECT_NAME":"STARLINK-1902","GP_ID":"200154293","APOAPSIS":"441.077","OBJECT_TYPE":"PAYLOAD","CLASSIFICATION_TYPE":"U","CENTER_NAME":"EARTH","PERIOD":"93.372","MEAN_ELEMENT_THEORY":"SGP4","LAUNCH_DATE":"2020-10-24","DECAY_DATE":null,"TLE_LINE1":"1 46763U 20074AA  22090.85211395  .00028435  00000-0  65914-3 0  9996","ECCENTRICITY":"0.00022100","EPHEMERIS_TYPE":"0","PERIAPSIS":"438.064","BSTAR":"0.00065914000000","SEMIMAJOR_AXIS":"6817.705","COUNTRY_CODE":"US","INCLINATION":"53.0544","ARG_OF_PERICENTER":"34.8865","NORAD_CAT_ID":"46763","OBJECT_ID":"2020-074AA","ELEMENT_SET_NO":"999","RA_OF_ASC_NODE":"297.2022","FILE":"3382067","MEAN_ANOMALY":"325.2284","SITE":"AFETR","RCS_SIZE":"LARGE","MEAN_MOTION_DDOT":"0.0000000000000","EPOCH":"2022-03-31T20:27:02.645280","REV_AT_EPOCH":"7987"},{"SEMIMAJOR_AXIS":"6925.337","COUNTRY_CODE":"US","INCLINATION":"53.0556","PERIAPSIS":"546.170","EPHEMERIS_TYPE":"0","BSTAR":"0.00037566000000","ECCENTRICITY":"0.00014900","RA_OF_ASC_NODE":"315.7768","FILE":"3382070","OBJECT_ID":"2020-074AB","ELEMENT_SET_NO":"999","NORAD_CAT_ID":"46764","ARG_OF_PERICENTER":"57.5945","MEAN_ANOMALY":"302.5188","SITE":"AFETR","REV_AT_EPOCH":"7961","RCS_SIZE":"LARGE","MEAN_MOTION_DDOT":"0.0000000000000","EPOCH":"2022-03-31T20:36:50.598144","TLE_LINE2":"2 46764  53.0556 315.7768 0001490  57.5945 302.5188 15.06403778 79610","MEAN_MOTION_DOT":"0.00005319","TIME_SYSTEM":"UTC","REF_FRAME":"TEME","MEAN_MOTION":"15.06403778","OBJECT_TYPE":"PAYLOAD","CLASSIFICATION_TYPE":"U","APOAPSIS":"548.234","GP_ID":"200154683","OBJECT_NAME":"STARLINK-1903","MEAN_ELEMENT_THEORY":"SGP4","LAUNCH_DATE":"2020-10-24","PERIOD":"95.592","CENTER_NAME":"EARTH","TLE_LINE1":"1 46764U 20074AB  22090.85891896  .00005319  00000-0  37566-3 0  9995","DECAY_DATE":null},{"DECAY_DATE":null,"TLE_LINE1":"1 46765U 20074AC  22089.98534113  .00001641  00000-0  12906-3 0  9999","PERIOD":"95.592","MEAN_ELEMENT_THEORY":"SGP4","LAUNCH_DATE":"2020-10-24","CENTER_NAME":"EARTH","APOAPSIS":"548.282","OBJECT_TYPE":"PAYLOAD","CLASSIFICATION_TYPE":"U","OBJECT_NAME":"STARLINK-1906","GP_ID":"200145045","TLE_LINE2":"2 46765  53.0530 319.7139 0001530  61.8860 298.2283 15.06397184 79461","MEAN_MOTION_DOT":"0.00001641","TIME_SYSTEM":"UTC","REF_FRAME":"TEME","MEAN_MOTION":"15.06397184","REV_AT_EPOCH":"7946","MEAN_MOTION_DDOT":"0.0000000000000","RCS_SIZE":"LARGE","EPOCH":"2022-03-30T23:38:53.473632","MEAN_ANOMALY":"298.2283","SITE":"AFETR","OBJECT_ID":"2020-074AC","ELEMENT_SET_NO":"999","FILE":"3381849","RA_OF_ASC_NODE":"319.7139","ARG_OF_PERICENTER":"61.8860","NORAD_CAT_ID":"46765","SEMIMAJOR_AXIS":"6925.357","COUNTRY_CODE":"US","INCLINATION":"53.0530","ECCENTRICITY":"0.00015300","PERIAPSIS":"546.163","EPHEMERIS_TYPE":"0","BSTAR":"0.00012906000000"},{"TLE_LINE2":"2 46766  53.0535 315.5545 0001571  60.4518 299.6628 15.06400402 79345","MEAN_MOTION_DOT":"0.00003526","REF_FRAME":"TEME","TIME_SYSTEM":"UTC","MEAN_MOTION":"15.06400402","APOAPSIS":"548.300","OBJECT_TYPE":"PAYLOAD","CLASSIFICATION_TYPE":"U","OBJECT_NAME":"STARLINK-1916","GP_ID":"200154483","PERIOD":"95.592","MEAN_ELEMENT_THEORY":"SGP4","LAUNCH_DATE":"2020-10-24","CENTER_NAME":"EARTH","DECAY_DATE":null,"TLE_LINE1":"1 46766U 20074AD  22090.90683478  .00003526  00000-0  25551-3 0  9997","COUNTRY_CODE":"US","SEMIMAJOR_AXIS":"6925.347","INCLINATION":"53.0535","ECCENTRICITY":"0.00015710","PERIAPSIS":"546.124","EPHEMERIS_TYPE":"0","BSTAR":"0.00025551000000","OBJECT_ID":"2020-074AD","ELEMENT_SET_NO":"999","RA_OF_ASC_NODE":"315.5545","FILE":"3382079","ARG_OF_PERICENTER":"60.4518","NORAD_CAT_ID":"46766","MEAN_ANOMALY":"299.6628","SITE":"AFETR","REV_AT_EPOCH":"7934","MEAN_MOTION_DDOT":"0.0000000000000","RCS_SIZE":"LARGE","EPOCH":"2022-03-31T21:45:50.524992"},{"TLE_LINE1":"1 46767U 20074AE  22090.80362663  .00003855  00000-0  27747-3 0  9991","DECAY_DATE":null,"LAUNCH_DATE":"2020-10-24","MEAN_ELEMENT_THEORY":"SGP4","PERIOD":"95.591","CENTER_NAME":"EARTH","CLASSIFICATION_TYPE":"U","OBJECT_TYPE":"PAYLOAD","APOAPSIS":"548.375","GP_ID":"200154935","OBJECT_NAME":"STARLINK-1917","MEAN_MOTION_DOT":"0.00003855","REF_FRAME":"TEME","TIME_SYSTEM":"UTC","TLE_LINE2":"2 46767  53.0555 316.0238 0001727  59.5674 300.5485 15.06411119 79607","MEAN_MOTION":"15.06411119","REV_AT_EPOCH":"7960","RCS_SIZE":"LARGE","EPOCH":"2022-03-31T19:17:13.340832","MEAN_MOTION_DDOT":"0.0000000000000","SITE":"AFETR","MEAN_ANOMALY":"300.5485","FILE":"3382094","RA_OF_ASC_NODE":"316.0238","ELEMENT_SET_NO":"999","OBJECT_ID":"2020-074AE","NORAD_CAT_ID":"46767","ARG_OF_PERICENTER":"59.5674","INCLINATION":"53.0555","COUNTRY_CODE":"US","SEMIMAJOR_AXIS":"6925.314","BSTAR":"0.00027747000000","PERIAPSIS":"545.983","EPHEMERIS_TYPE":"0","ECCENTRICITY":"0.00017270"},{"MEAN_ANOMALY":"295.6274","SITE":"AFETR","REV_AT_EPOCH":"7952","RCS_SIZE":"LARGE","EPOCH":"2022-03-31T08:13:46.078752","MEAN_MOTION_DDOT":"0.0000000000000","SEMIMAJOR_AXIS":"6925.367","COUNTRY_CODE":"US","INCLINATION":"53.0542","EPHEMERIS_TYPE":"0","PERIAPSIS":"546.154","BSTAR":"0.00053796000000","ECCENTRICITY":"0.00015570","FILE":"3381849","RA_OF_ASC_NODE":"318.1086","OBJECT_ID":"2020-074AF","ELEMENT_SET_NO":"999","NORAD_CAT_ID":"46768","ARG_OF_PERICENTER":"64.4876","MEAN_ELEMENT_THEORY":"SGP4","LAUNCH_DATE":"2020-10-24","PERIOD":"95.593","CENTER_NAME":"EARTH","TLE_LINE1":"1 46768U 20074AF  22090.34289443  .00007739  00000-0  53796-3 0  9993","DECAY_DATE":null,"TLE_LINE2":"2 46768  53.0542 318.1086 0001557  64.4876 295.6274 15.06393857 79527","MEAN_MOTION_DOT":"0.00007739","REF_FRAME":"TEME","TIME_SYSTEM":"UTC","MEAN_MOTION":"15.06393857","OBJECT_TYPE":"PAYLOAD","CLASSIFICATION_TYPE":"U","APOAPSIS":"548.311","GP_ID":"200146283","OBJECT_NAME":"STARLINK-1918"}];
